[Satellite]
VERSION=1.1
NAME=IRIDIUM 53 [+]
NICKNAME=IRIDIUM 53 [+]
TLE1=1 25173U 98010E   17185.99939615  .00000001  00000-0 -66801-5 0  9997
TLE2=2 25173  86.3959 342.9232 0002193  89.5539 270.5908 14.34211921 14058
